GXIBA-1                 
1 67684U 98067YA  26076.86189177  .00060522  00000+0  86157-3 0  9993
2 67684  51.6316  30.7297 0011750 204.5716 155.4717 15.55683009  6066
CORAL                   
1 67685U 98067YB  26076.12540672  .00033584  00000+0  53452-3 0  9994
2 67685  51.6322  34.8103 0011539 208.7599 151.2756 15.52891550  5947
ISS OBJECT YC           
1 67686U 98067YC  26076.18125465  .00042474  00000+0  65716-3 0  9994
2 67686  51.6318  34.4356 0008506 178.1520 181.9503 15.53596478  5956
LEOPARD                 
1 67687U 98067YD  26076.83647326  .00031269  00000+0  50220-3 0  9996
2 67687  51.6319  31.3108 0008197 184.0691 176.0233 15.52713902  5979
ISS OBJECT YE           
1 67688U 98067YE  26076.18513148  .00039222  00000+0  61484-3 0  9990
2 67688  51.6319  34.4615 0008254 178.8227 181.2784 15.53273796  5878
CREW DRAGON 12          
1 67796U 26031A   26076.38694946  .00012661  00000+0  24296-3 0  9998
2 67796  51.6338  34.3055 0006232 201.4845 158.5882 15.48344038557442
